      2.10          N: GNSS NAV DATA                        RINEX VERSION / TYPE
fic2rin                                 06/21/2019 00:19:13 PGM / RUN BY / DATE
                                                            END OF HEADER
30 19  6 20  8  0  0.0-1.273932866752e-04-7.389644451905e-12 0.000000000000e+00
    1.000000000000e+02-1.593750000000e+00 5.177715672641e-09 1.423949034244e+00
    1.508742570877e-07 4.091812879778e-03 8.268281817436e-06 5.153790832520e+03
    3.744000000000e+05 5.587935447693e-08-1.780096347015e-01 4.097819328308e-08
    9.410333657712e-01 2.096875000000e+02-2.956029728538e+00-8.251057975398e-09
   -5.775240561951e-10 1.000000000000e+00 2.058000000000e+03 0.000000000000e+00
    3.400000000000e+00 0.000000000000e+00 3.725290298462e-09 1.000000000000e+02
    3.672000000000e+05 4.000000000000e+00
31 19  6 20  8  0  0.0 2.984749153256e-05-2.614797267597e-12 0.000000000000e+00
    5.000000000000e+01 2.343750000000e+00 4.708410409907e-09 1.073240747025e+00
    3.334134817123e-07 9.218182764016e-03 8.327886462212e-06 5.153630052567e+03
    3.744000000000e+05 8.754432201385e-08-1.916825747029e-01 9.313225746155e-08
    9.601257296848e-01 2.150625000000e+02 7.797179275243e-03-7.962831683902e-09
   -6.896715847326e-10 1.000000000000e+00 2.058000000000e+03 0.000000000000e+00
    2.400000000000e+00 0.000000000000e+00-1.350417733192e-08 5.000000000000e+01
    3.672000000000e+05 4.000000000000e+00
18 19  6 20  8  0  0.0 6.342260167003e-05 3.069544618484e-12 0.000000000000e+00
    9.200000000000e+01-1.183750000000e+02 4.406969282245e-09 1.767697212210e+00
   -6.403774023056e-06 1.548431068659e-02 4.328787326813e-06 5.153700494766e+03
    3.744000000000e+05 7.264316082001e-08 2.871781284303e+00-3.427267074585e-07
    9.547885466383e-01 2.948125000000e+02 1.398528889862e+00-8.181055059495e-09
   -1.135761594744e-10 1.000000000000e+00 2.058000000000e+03 0.000000000000e+00
    2.400000000000e+00 0.000000000000e+00-5.587935447693e-09 9.200000000000e+01
    3.672000000000e+05 4.000000000000e+00
17 19  6 20  8  0  0.0 7.480103522539e-05 6.480149750132e-12 0.000000000000e+00
    1.010000000000e+02 2.646875000000e+01 3.979451474413e-09-2.172123021825e+00
    1.478940248489e-06 1.284406252671e-02 1.529231667519e-06 5.153757913589e+03
    3.744000000000e+05 2.365559339523e-07 1.928139592651e+00 5.587935447693e-09
    9.839436774093e-01 3.634375000000e+02-1.711601467780e+00-7.856041521377e-09
    4.035882396416e-11 1.000000000000e+00 2.058000000000e+03 0.000000000000e+00
    2.400000000000e+00 0.000000000000e+00-1.117587089539e-08 1.010000000000e+02
    3.672000000000e+05 4.000000000000e+00
29 19  6 20  8  0  0.0 1.718462444842e-04-9.663381206337e-12 0.000000000000e+00
    8.100000000000e+01 2.890625000000e+01 4.125171829965e-09-1.590392120318e+00
    1.473352313042e-06 1.168139162473e-03 1.315027475357e-06 5.153737066269e+03
    3.744000000000e+05 4.097819328308e-08 1.939320796953e+00-1.676380634308e-08
    9.854216971919e-01 3.671562500000e+02 1.760020549589e+00-8.149982336620e-09
    3.750156209059e-11 1.000000000000e+00 2.058000000000e+03 0.000000000000e+00
    2.400000000000e+00 0.000000000000e+00-9.778887033463e-09 8.100000000000e+01
    3.672000000000e+05 4.000000000000e+00
20 19  6 20  8  0  0.0 5.254927091300e-04 2.273736754432e-13 0.000000000000e+00
    6.800000000000e+01-5.653125000000e+01 4.894846747157e-09 1.646088659274e+00
   -2.931803464890e-06 4.485493875109e-03 1.059286296368e-05 5.153700092316e+03
    3.744000000000e+05 5.587935447693e-08-2.436597739105e+00 7.450580596924e-08
    9.310260274168e-01 1.592812500000e+02 2.379863021316e+00-8.022477025512e-09
    4.264463346301e-10 1.000000000000e+00 2.058000000000e+03 0.000000000000e+00
    2.400000000000e+00 0.000000000000e+00-8.847564458847e-09 6.800000000000e+01
    3.672000000000e+05 4.000000000000e+00
24 19  6 20  8  0  0.0-6.769970059395e-05-5.684341886081e-13 0.000000000000e+00
    1.470000000000e+02-5.093750000000e+00 5.171643991159e-09 2.301994433045e+00
   -3.427267074585e-07 8.349165087566e-03 8.122995495796e-06 5.153710418701e+03
    3.744000000000e+05-1.881271600723e-07-2.721358480990e-01-7.636845111847e-08
    9.386953476519e-01 2.112500000000e+02 6.034726539497e-01-8.092122783681e-09
   -4.893060958486e-10 1.000000000000e+00 2.058000000000e+03 0.000000000000e+00
    2.400000000000e+00 0.000000000000e+00 2.793967723846e-09 1.470000000000e+02
    3.672000000000e+05 4.000000000000e+00
 4 19  6 20  8  0  0.0 1.678140833974e-04 1.364242052659e-12 0.000000000000e+00
    1.040000000000e+02 9.375000000000e+00 5.023066373734e-09 1.100512587281e+00
    5.569308996201e-07 4.373902920634e-04 5.785375833511e-06 5.153722812653e+03
    3.744000000000e+05-4.284083843231e-08-1.236324200768e+00-2.421438694000e-08
    9.593907289205e-01 2.695625000000e+02-1.429538535549e+00-8.127838557100e-09
    2.628680923683e-10 1.000000000000e+00 2.058000000000e+03 0.000000000000e+00
    6.144000000000e+03 6.300000000000e+01-8.847564458847e-09 1.040000000000e+02
    3.676200000000e+05 4.000000000000e+00
22 19  6 20  7 59 44.0-7.196930237114e-04-5.570655048359e-12 0.000000000000e+00
    5.000000000000e+00-5.146875000000e+01 4.954134931034e-09-2.926806497467e+00
   -2.792105078697e-06 7.193247787654e-03 1.004524528980e-05 5.153784095764e+03
    3.743840000000e+05 1.061707735062e-07-2.388018628687e+00 1.136213541031e-07
    9.277035224840e-01 1.624062500000e+02-1.328537869678e+00-8.016762501765e-09
    4.889489381144e-10 1.000000000000e+00 2.058000000000e+03 0.000000000000e+00
    2.400000000000e+00 0.000000000000e+00-1.816079020500e-08 5.000000000000e+00
    3.687000000000e+05 4.000000000000e+00
30 19  6 20  7 59 44.0-1.273928210139e-04-7.389644451905e-12 0.000000000000e+00
    2.100000000000e+01-1.593750000000e+00 5.177358514906e-09 1.421614288673e+00
    1.508742570877e-07 4.091807059012e-03 8.268281817436e-06 5.153790828705e+03
    3.743840000000e+05 5.587935447693e-08-1.780094957243e-01 4.097819328308e-08
    9.410333804004e-01 2.096875000000e+02-2.956028564055e+00-8.251057975398e-09
   -5.775240561951e-10 1.000000000000e+00 2.058000000000e+03 0.000000000000e+00
    2.400000000000e+00 0.000000000000e+00 3.725290298462e-09 2.100000000000e+01
    3.700800000000e+05 4.000000000000e+00
 1 19  6 20  7 59 44.0-4.581175744534e-05-9.777068044059e-12 0.000000000000e+00
    3.000000000000e+00-1.173437500000e+02 3.969808215589e-09 2.022756103042e+00
   -6.141141057014e-06 8.961617248133e-03 5.412846803665e-06 5.153658433914e+03
    3.743840000000e+05-1.136213541031e-07 2.927396009566e+00-6.891787052155e-08
    9.762836218344e-01 2.845937500000e+02 7.212265216138e-01-7.946402428129e-09
   -1.457203555520e-10 1.000000000000e+00 2.058000000000e+03 0.000000000000e+00
    2.400000000000e+00 0.000000000000e+00 5.587935447693e-09 3.000000000000e+00
    3.702000000000e+05 4.000000000000e+00
29 19  6 20  7 59 44.0 1.718564890325e-04-9.549694368616e-12 0.000000000000e+00
    0.000000000000e+00 2.890625000000e+01 4.125171829965e-09-1.592723315388e+00
    1.473352313042e-06 1.168139744550e-03 1.315027475357e-06 5.153737056732e+03
    3.743840000000e+05 4.097819328308e-08 1.939320953485e+00-1.676380634308e-08
    9.854216913403e-01 3.671562500000e+02 1.760018112367e+00-8.149982336620e-09
    3.750156209059e-11 1.000000000000e+00 2.058000000000e+03 0.000000000000e+00
    2.400000000000e+00 0.000000000000e+00-9.778887033463e-09 0.000000000000e+00
    3.702000000000e+05 4.000000000000e+00
10 19  6 20  7 59 44.0 1.035677269101e-05-1.205080479849e-11 0.000000000000e+00
    1.000000000000e+00-4.571875000000e+01 4.278035340201e-09-3.328638509440e-02
   -2.279877662659e-06 4.613417200744e-03 1.077353954315e-05 5.153667333603e+03
    3.743840000000e+05 3.725290298462e-08-2.317293141704e+00 7.636845111847e-08
    9.631402376969e-01 1.740625000000e+02-2.696939095459e+00-7.808539542729e-09
    5.332364971548e-10 1.000000000000e+00 2.058000000000e+03 0.000000000000e+00
    2.400000000000e+00 0.000000000000e+00 1.862645149231e-09 1.000000000000e+00
    3.719400000000e+05 4.000000000000e+00
 1 19  6 20  9 59 44.0-4.588253796101e-05-9.777068044059e-12 0.000000000000e+00
    6.000000000000e+00-1.244375000000e+02 3.926234972018e-09 3.072935428484e+00
   -6.418675184250e-06 8.962288964540e-03 5.451962351799e-06 5.153657451630e+03
    3.815840000000e+05 3.166496753693e-08 2.927339418043e+00-3.911554813385e-08
    9.762831800332e-01 2.826875000000e+02 7.212329540646e-01-7.809611015932e-09
   -1.539349834385e-10 1.000000000000e+00 2.058000000000e+03 0.000000000000e+00
    2.400000000000e+00 0.000000000000e+00 5.587935447693e-09 6.000000000000e+00
    3.744000000000e+05 4.000000000000e+00
10 19  6 20  9 59 44.0 1.026969403028e-05-1.205080479849e-11 0.000000000000e+00
    6.000000000000e+00-4.034375000000e+01 4.178745490094e-09 1.016870376299e+00
   -2.151355147362e-06 4.614082630724e-03 1.065246760845e-05 5.153668546677e+03
    3.815840000000e+05-1.173466444016e-07-2.317348513153e+00 7.823109626770e-08
    9.631439988592e-01 1.756875000000e+02-2.696914132224e+00-7.732464945345e-09
    4.296607542379e-10 1.000000000000e+00 2.058000000000e+03 0.000000000000e+00
    2.400000000000e+00 0.000000000000e+00 1.862645149231e-09 6.000000000000e+00
    3.744000000000e+05 4.000000000000e+00
22 19  6 20  9 59 44.0-7.197330705822e-04-5.570655048359e-12 0.000000000000e+00
    3.500000000000e+01-5.003125000000e+01 4.904490005981e-09-1.876781885853e+00
   -2.343207597733e-06 7.193385623395e-03 1.055188477039e-05 5.153783075333e+03
    3.815840000000e+05 2.607703208923e-08-2.388076320324e+00 1.918524503708e-07
    9.277068418451e-01 1.554062500000e+02-1.328446440224e+00-8.074979212439e-09
    4.835915721015e-10 1.000000000000e+00 2.058000000000e+03 0.000000000000e+00
    2.400000000000e+00 0.000000000000e+00-1.816079020500e-08 3.500000000000e+01
    3.744000000000e+05 4.000000000000e+00
